{
  "type": "FeatureCollection",
  "generator": "polygons.openstreetmap.fr",
  "copyright": "OpenStreetMap contributors, ODbL 1.0",
  "source": "https://www.openstreetmap.org/relation/342629",
  "features": [
    {
      "type": "Feature",
      "properties": {
        "@id": "relation/342629",
        "admin_level": "8",
        "boundary": "administrative",
        "name": "Ames",
        "description": "Limite municipal de Ames, A Coruna, Galicia",
        "place": "municipality",
        "wikidata": "Q1353997",
        "wikipedia": "gl:Ames"
      },
      "geometry": {
        "type": "MultiPolygon",
        "coordinates": [
          [
            [
              [
                -8.7247127,
                42.888685
              ],
              [
                -8.7248329,
                42.8882648
              ],
              [
                -8.7247143,
                42.8879107
              ],
              [
                -8.7245068,
                42.88739
              ],
              [
                -8.7245306,
                42.8863266
              ],
              [
                -8.7244007,
                42.885982
              ],
              [
                -8.7239592,
                42.885446
              ],
              [
                -8.7234458,
                42.8850577
              ],
              [
                -8.7234062,
                42.8847626
              ],
              [
                -8.7228545,
                42.8847542
              ],
              [
                -8.7215607,
                42.8845311
              ],
              [
                -8.7211752,
                42.8843343
              ],
              [
                -8.7208238,
                42.8837128
              ],
              [
                -8.7204793,
                42.8821097
              ],
              [
                -8.717909,
                42.8817164
              ],
              [
                -8.7173893,
                42.879807
              ],
              [
                -8.7160975,
                42.8801328
              ],
              [
                -8.7159456,
                42.8788891
              ],
              [
                -8.7154642,
                42.8773919
              ],
              [
                -8.7144849,
                42.8750104
              ],
              [
                -8.7135446,
                42.8727813
              ],
              [
                -8.713544,
                42.8727799
              ],
              [
                -8.7118811,
                42.8726651
              ],
              [
                -8.7118201,
                42.8700216
              ],
              [
                -8.711817,
                42.8700228
              ],
              [
                -8.7043265,
                42.872764
              ],
              [
                -8.7013499,
                42.8748572
              ],
              [
                -8.7008078,
                42.8746863
              ],
              [
                -8.6943967,
                42.8764377
              ],
              [
                -8.6952906,
                42.8771043
              ],
              [
                -8.6944418,
                42.8771916
              ],
              [
                -8.6930729,
                42.877611
              ],
              [
                -8.6912404,
                42.8804291
              ],
              [
                -8.6912398,
                42.8804301
              ],
              [
                -8.690067,
                42.8800565
              ],
              [
                -8.6892124,
                42.87955
              ],
              [
                -8.6885542,
                42.8789166
              ],
              [
                -8.6877046,
                42.878995
              ],
              [
                -8.6859788,
                42.879261
              ],
              [
                -8.6853843,
                42.8777243
              ],
              [
                -8.6830702,
                42.8773175
              ],
              [
                -8.680941,
                42.8773245
              ],
              [
                -8.6796413,
                42.8779653
              ],
              [
                -8.6780348,
                42.877001
              ],
              [
                -8.6760699,
                42.8777289
              ],
              [
                -8.671707,
                42.8785375
              ],
              [
                -8.6694986,
                42.8789468
              ],
              [
                -8.6653269,
                42.8772566
              ],
              [
                -8.6640955,
                42.8767576
              ],
              [
                -8.6640983,
                42.8767531
              ],
              [
                -8.6644466,
                42.876182
              ],
              [
                -8.663631,
                42.8754303
              ],
              [
                -8.6641795,
                42.874872
              ],
              [
                -8.6641373,
                42.8746437
              ],
              [
                -8.6638877,
                42.8732931
              ],
              [
                -8.6637152,
                42.8730136
              ],
              [
                -8.6632144,
                42.8726243
              ],
              [
                -8.663036,
                42.8721471
              ],
              [
                -8.6629946,
                42.871429
              ],
              [
                -8.6662752,
                42.8700071
              ],
              [
                -8.6662786,
                42.8700056
              ],
              [
                -8.6670586,
                42.8694358
              ],
              [
                -8.6671886,
                42.8667196
              ],
              [
                -8.6670387,
                42.866286
              ],
              [
                -8.6663767,
                42.8662739
              ],
              [
                -8.6659749,
                42.8657627
              ],
              [
                -8.6664128,
                42.8654838
              ],
              [
                -8.666634,
                42.8653429
              ],
              [
                -8.6662848,
                42.864739
              ],
              [
                -8.6667921,
                42.8643988
              ],
              [
                -8.6681806,
                42.8631113
              ],
              [
                -8.668495,
                42.8628198
              ],
              [
                -8.6684914,
                42.8628175
              ],
              [
                -8.6665809,
                42.8615646
              ],
              [
                -8.6678309,
                42.8602512
              ],
              [
                -8.6650544,
                42.8589307
              ],
              [
                -8.6638075,
                42.8578764
              ],
              [
                -8.663296,
                42.8572356
              ],
              [
                -8.661686,
                42.85529
              ],
              [
                -8.6619786,
                42.8547444
              ],
              [
                -8.6613949,
                42.8541162
              ],
              [
                -8.6604172,
                42.8541287
              ],
              [
                -8.6597751,
                42.8543315
              ],
              [
                -8.6586419,
                42.8539827
              ],
              [
                -8.6582185,
                42.8536346
              ],
              [
                -8.658126,
                42.852892
              ],
              [
                -8.6596294,
                42.8507379
              ],
              [
                -8.6588269,
                42.8505257
              ],
              [
                -8.6581071,
                42.8518847
              ],
              [
                -8.6576189,
                42.8517823
              ],
              [
                -8.655712,
                42.8513822
              ],
              [
                -8.653869,
                42.8526349
              ],
              [
                -8.6529704,
                42.8529764
              ],
              [
                -8.6519723,
                42.8519636
              ],
              [
                -8.6501473,
                42.8504696
              ],
              [
                -8.6496636,
                42.8498634
              ],
              [
                -8.649337,
                42.8496365
              ],
              [
                -8.6488789,
                42.8494432
              ],
              [
                -8.6479944,
                42.8492709
              ],
              [
                -8.6478141,
                42.8491718
              ],
              [
                -8.6480994,
                42.8485455
              ],
              [
                -8.647979,
                42.8482994
              ],
              [
                -8.6477361,
                42.8480504
              ],
              [
                -8.647718,
                42.8478532
              ],
              [
                -8.6479272,
                42.8474648
              ],
              [
                -8.6470002,
                42.8468265
              ],
              [
                -8.6473062,
                42.8466943
              ],
              [
                -8.648304,
                42.8465009
              ],
              [
                -8.6485345,
                42.8463455
              ],
              [
                -8.6486476,
                42.8457097
              ],
              [
                -8.6494093,
                42.845744
              ],
              [
                -8.6497023,
                42.8456035
              ],
              [
                -8.6498205,
                42.8452915
              ],
              [
                -8.6497611,
                42.8450424
              ],
              [
                -8.6494607,
                42.8451023
              ],
              [
                -8.6490371,
                42.8454204
              ],
              [
                -8.6487691,
                42.8452986
              ],
              [
                -8.648725,
                42.8449497
              ],
              [
                -8.6487788,
                42.8443349
              ],
              [
                -8.6490539,
                42.8441322
              ],
              [
                -8.6494486,
                42.8441667
              ],
              [
                -8.6501624,
                42.8443474
              ],
              [
                -8.6507111,
                42.8441942
              ],
              [
                -8.6510884,
                42.8439054
              ],
              [
                -8.651223,
                42.8436377
              ],
              [
                -8.65119,
                42.8435401
              ],
              [
                -8.6511391,
                42.8433898
              ],
              [
                -8.651255,
                42.843051
              ],
              [
                -8.651564,
                42.8426846
              ],
              [
                -8.6516754,
                42.8424649
              ],
              [
                -8.6517091,
                42.8423984
              ],
              [
                -8.6517242,
                42.8420285
              ],
              [
                -8.6513783,
                42.8410554
              ],
              [
                -8.651401,
                42.8401001
              ],
              [
                -8.6513089,
                42.8396275
              ],
              [
                -8.6513841,
                42.8392457
              ],
              [
                -8.6518203,
                42.8386659
              ],
              [
                -8.6524147,
                42.8382512
              ],
              [
                -8.6528897,
                42.8379198
              ],
              [
                -8.6532035,
                42.8374722
              ],
              [
                -8.6532237,
                42.8372734
              ],
              [
                -8.6532421,
                42.8370922
              ],
              [
                -8.652998,
                42.8364291
              ],
              [
                -8.65276,
                42.836014
              ],
              [
                -8.6518338,
                42.8343983
              ],
              [
                -8.6509873,
                42.833702
              ],
              [
                -8.6505796,
                42.8335241
              ],
              [
                -8.6504319,
                42.8335302
              ],
              [
                -8.6494464,
                42.8335712
              ],
              [
                -8.6489771,
                42.8335224
              ],
              [
                -8.648442,
                42.8332879
              ],
              [
                -8.6479277,
                42.8327462
              ],
              [
                -8.647626,
                42.8330582
              ],
              [
                -8.6457973,
                42.8323205
              ],
              [
                -8.6448288,
                42.8333676
              ],
              [
                -8.6428643,
                42.8358324
              ],
              [
                -8.6420271,
                42.8376672
              ],
              [
                -8.6417423,
                42.837693
              ],
              [
                -8.6403209,
                42.8376503
              ],
              [
                -8.6401221,
                42.8382408
              ],
              [
                -8.6381817,
                42.8382052
              ],
              [
                -8.6369901,
                42.8378916
              ],
              [
                -8.6367698,
                42.8378336
              ],
              [
                -8.637124,
                42.8357589
              ],
              [
                -8.6378184,
                42.8350915
              ],
              [
                -8.6385169,
                42.8305469
              ],
              [
                -8.6388921,
                42.8294301
              ],
              [
                -8.6388717,
                42.8286569
              ],
              [
                -8.6391636,
                42.8276593
              ],
              [
                -8.6392472,
                42.8274414
              ],
              [
                -8.6392312,
                42.8273064
              ],
              [
                -8.6387812,
                42.8269135
              ],
              [
                -8.6387617,
                42.8266937
              ],
              [
                -8.6384458,
                42.8263459
              ],
              [
                -8.6381529,
                42.8260457
              ],
              [
                -8.6377099,
                42.8253062
              ],
              [
                -8.6366479,
                42.825742
              ],
              [
                -8.6362065,
                42.8261329
              ],
              [
                -8.6358146,
                42.8262603
              ],
              [
                -8.6354607,
                42.8262688
              ],
              [
                -8.6347977,
                42.826384
              ],
              [
                -8.6338866,
                42.8259244
              ],
              [
                -8.6321635,
                42.8249993
              ],
              [
                -8.6318485,
                42.8248151
              ],
              [
                -8.631798,
                42.8246808
              ],
              [
                -8.6315369,
                42.8238857
              ],
              [
                -8.6314121,
                42.8238851
              ],
              [
                -8.6297581,
                42.8237813
              ],
              [
                -8.6287001,
                42.8232771
              ],
              [
                -8.6286597,
                42.823404
              ],
              [
                -8.6282439,
                42.8240124
              ],
              [
                -8.6273537,
                42.8242845
              ],
              [
                -8.6261805,
                42.8252265
              ],
              [
                -8.6236702,
                42.8261594
              ],
              [
                -8.6230672,
                42.82563
              ],
              [
                -8.6227832,
                42.8255033
              ],
              [
                -8.6224914,
                42.8254217
              ],
              [
                -8.6221997,
                42.8255174
              ],
              [
                -8.6219684,
                42.8256357
              ],
              [
                -8.6216633,
                42.8256814
              ],
              [
                -8.6205642,
                42.8259888
              ],
              [
                -8.6200275,
                42.8260343
              ],
              [
                -8.618327,
                42.8262764
              ],
              [
                -8.6178393,
                42.8266965
              ],
              [
                -8.6163972,
                42.8267975
              ],
              [
                -8.6161136,
                42.8268174
              ],
              [
                -8.6152012,
                42.8267363
              ],
              [
                -8.6143676,
                42.8269843
              ],
              [
                -8.6142589,
                42.8271337
              ],
              [
                -8.6136983,
                42.8287727
              ],
              [
                -8.6127268,
                42.8296577
              ],
              [
                -8.6122683,
                42.8302654
              ],
              [
                -8.61076,
                42.8302581
              ],
              [
                -8.6104124,
                42.8293574
              ],
              [
                -8.6084303,
                42.8305621
              ],
              [
                -8.6073498,
                42.8305161
              ],
              [
                -8.6071119,
                42.8307259
              ],
              [
                -8.6069358,
                42.8310766
              ],
              [
                -8.6067792,
                42.8312374
              ],
              [
                -8.606025,
                42.8314184
              ],
              [
                -8.6054543,
                42.8314645
              ],
              [
                -8.6044461,
                42.8318111
              ],
              [
                -8.6041311,
                42.8319796
              ],
              [
                -8.6031034,
                42.8327862
              ],
              [
                -8.6027138,
                42.8329404
              ],
              [
                -8.6019815,
                42.8330934
              ],
              [
                -8.6016649,
                42.833379
              ],
              [
                -8.6016552,
                42.8340816
              ],
              [
                -8.6009189,
                42.8341898
              ],
              [
                -8.6005495,
                42.8342979
              ],
              [
                -8.5999349,
                42.8349402
              ],
              [
                -8.5994827,
                42.8356196
              ],
              [
                -8.5985718,
                42.8358263
              ],
              [
                -8.598718,
                42.8360892
              ],
              [
                -8.5987171,
                42.8364853
              ],
              [
                -8.5985077,
                42.8367387
              ],
              [
                -8.5980311,
                42.8368791
              ],
              [
                -8.5977242,
                42.8371372
              ],
              [
                -8.5975894,
                42.8374049
              ],
              [
                -8.5973288,
                42.8376337
              ],
              [
                -8.5959291,
                42.8378464
              ],
              [
                -8.5965762,
                42.8382378
              ],
              [
                -8.5965031,
                42.8391866
              ],
              [
                -8.5943547,
                42.839508
              ],
              [
                -8.5930021,
                42.8391602
              ],
              [
                -8.5921643,
                42.8385531
              ],
              [
                -8.5916893,
                42.8385763
              ],
              [
                -8.5908831,
                42.8388589
              ],
              [
                -8.5904853,
                42.8387884
              ],
              [
                -8.5900963,
                42.8388164
              ],
              [
                -8.5888386,
                42.8393821
              ],
              [
                -8.5864871,
                42.8405685
              ],
              [
                -8.5840324,
                42.8412918
              ],
              [
                -8.5835728,
                42.8416204
              ],
              [
                -8.5811356,
                42.8406413
              ],
              [
                -8.5809464,
                42.8405786
              ],
              [
                -8.5809359,
                42.8405706
              ],
              [
                -8.5797471,
                42.8396621
              ],
              [
                -8.5798747,
                42.8395356
              ],
              [
                -8.5796978,
                42.8394078
              ],
              [
                -8.5794081,
                42.8396127
              ],
              [
                -8.5793991,
                42.8396057
              ],
              [
                -8.5792125,
                42.8394609
              ],
              [
                -8.5789182,
                42.8392324
              ],
              [
                -8.5784005,
                42.8396183
              ],
              [
                -8.5784851,
                42.8397048
              ],
              [
                -8.5783353,
                42.8403821
              ],
              [
                -8.5779068,
                42.8412649
              ],
              [
                -8.5774318,
                42.8411795
              ],
              [
                -8.576894,
                42.8411289
              ],
              [
                -8.5763887,
                42.8409969
              ],
              [
                -8.5757122,
                42.8409722
              ],
              [
                -8.5756196,
                42.8411454
              ],
              [
                -8.5752332,
                42.8411
              ],
              [
                -8.5750666,
                42.8414878
              ],
              [
                -8.5744809,
                42.8410673
              ],
              [
                -8.5743504,
                42.8409557
              ],
              [
                -8.5741634,
                42.8407958
              ],
              [
                -8.574007,
                42.8407469
              ],
              [
                -8.5737839,
                42.8407037
              ],
              [
                -8.5736763,
                42.8405945
              ],
              [
                -8.5735942,
                42.8405494
              ],
              [
                -8.5735395,
                42.8405589
              ],
              [
                -8.5734737,
                42.8406866
              ],
              [
                -8.5735532,
                42.8408351
              ],
              [
                -8.573484,
                42.8409667
              ],
              [
                -8.5733097,
                42.8410757
              ],
              [
                -8.5732192,
                42.8411819
              ],
              [
                -8.572902,
                42.84125
              ],
              [
                -8.572198,
                42.8412845
              ],
              [
                -8.5702253,
                42.8412014
              ],
              [
                -8.5699103,
                42.8412347
              ],
              [
                -8.5693335,
                42.841758
              ],
              [
                -8.5685709,
                42.8421193
              ],
              [
                -8.5683905,
                42.8424252
              ],
              [
                -8.5681993,
                42.8431547
              ],
              [
                -8.5678418,
                42.8436673
              ],
              [
                -8.567508,
                42.8437646
              ],
              [
                -8.5671078,
                42.8436671
              ],
              [
                -8.5668626,
                42.843526
              ],
              [
                -8.566393,
                42.843522
              ],
              [
                -8.5661977,
                42.8437877
              ],
              [
                -8.5660247,
                42.8441348
              ],
              [
                -8.5657568,
                42.8445539
              ],
              [
                -8.565426,
                42.8450173
              ],
              [
                -8.5653131,
                42.84542
              ],
              [
                -8.5659767,
                42.8452534
              ],
              [
                -8.5715387,
                42.8474929
              ],
              [
                -8.5719966,
                42.8478216
              ],
              [
                -8.5728981,
                42.8475075
              ],
              [
                -8.5737567,
                42.8479144
              ],
              [
                -8.5741749,
                42.848115
              ],
              [
                -8.5743087,
                42.8481792
              ],
              [
                -8.5759356,
                42.8485392
              ],
              [
                -8.576429,
                42.8482551
              ],
              [
                -8.5768642,
                42.8482288
              ],
              [
                -8.5770521,
                42.8482289
              ],
              [
                -8.5779985,
                42.8482295
              ],
              [
                -8.5782935,
                42.8482297
              ],
              [
                -8.5807946,
                42.8486561
              ],
              [
                -8.5813598,
                42.8485264
              ],
              [
                -8.5813449,
                42.8487672
              ],
              [
                -8.5807586,
                42.8542567
              ],
              [
                -8.5810181,
                42.8544004
              ],
              [
                -8.5814169,
                42.8544551
              ],
              [
                -8.5818497,
                42.8546409
              ],
              [
                -8.5839546,
                42.8551861
              ],
              [
                -8.5843338,
                42.8551856
              ],
              [
                -8.585077,
                42.8548791
              ],
              [
                -8.5855431,
                42.8548923
              ],
              [
                -8.5858802,
                42.8548308
              ],
              [
                -8.5861489,
                42.8552318
              ],
              [
                -8.5866199,
                42.8557038
              ],
              [
                -8.5867383,
                42.8562022
              ],
              [
                -8.5868861,
                42.856348
              ],
              [
                -8.5873385,
                42.8563438
              ],
              [
                -8.587846,
                42.856544
              ],
              [
                -8.58827,
                42.8566313
              ],
              [
                -8.589662,
                42.8567342
              ],
              [
                -8.5917175,
                42.8564624
              ],
              [
                -8.5928204,
                42.8560753
              ],
              [
                -8.5927301,
                42.8588614
              ],
              [
                -8.5922022,
                42.8591123
              ],
              [
                -8.5921169,
                42.8592516
              ],
              [
                -8.5923037,
                42.8594225
              ],
              [
                -8.5928299,
                42.8596937
              ],
              [
                -8.592972,
                42.8599118
              ],
              [
                -8.5930532,
                42.8602679
              ],
              [
                -8.5959178,
                42.8594703
              ],
              [
                -8.5971418,
                42.8587982
              ],
              [
                -8.5974187,
                42.8587486
              ],
              [
                -8.5974975,
                42.8585377
              ],
              [
                -8.5980043,
                42.8581887
              ],
              [
                -8.5983909,
                42.8585388
              ],
              [
                -8.6018473,
                42.8565778
              ],
              [
                -8.6022314,
                42.8564959
              ],
              [
                -8.6025303,
                42.8565533
              ],
              [
                -8.602648,
                42.8567725
              ],
              [
                -8.6026513,
                42.8570784
              ],
              [
                -8.6025173,
                42.8574901
              ],
              [
                -8.6021828,
                42.8579837
              ],
              [
                -8.6021032,
                42.8583206
              ],
              [
                -8.6021739,
                42.8586953
              ],
              [
                -8.6024192,
                42.8589713
              ],
              [
                -8.6025809,
                42.8598096
              ],
              [
                -8.6027629,
                42.8600617
              ],
              [
                -8.6031105,
                42.8602517
              ],
              [
                -8.6033095,
                42.8602869
              ],
              [
                -8.6033202,
                42.8602288
              ],
              [
                -8.6035392,
                42.8590423
              ],
              [
                -8.6038006,
                42.8584174
              ],
              [
                -8.6048158,
                42.8585475
              ],
              [
                -8.604635,
                42.8605999
              ],
              [
                -8.6053164,
                42.8606925
              ],
              [
                -8.6049112,
                42.8614866
              ],
              [
                -8.6055213,
                42.8618707
              ],
              [
                -8.6061629,
                42.8616592
              ],
              [
                -8.6063448,
                42.8619113
              ],
              [
                -8.6065983,
                42.862547
              ],
              [
                -8.6065069,
                42.8627487
              ],
              [
                -8.6065066,
                42.8627495
              ],
              [
                -8.6062085,
                42.8629712
              ],
              [
                -8.6061469,
                42.8632353
              ],
              [
                -8.6062802,
                42.863895
              ],
              [
                -8.6064621,
                42.864012
              ],
              [
                -8.6102902,
                42.864256
              ],
              [
                -8.6160119,
                42.8664835
              ],
              [
                -8.6163179,
                42.8664425
              ],
              [
                -8.6172915,
                42.8660172
              ],
              [
                -8.6178596,
                42.8663473
              ],
              [
                -8.6185504,
                42.8665306
              ],
              [
                -8.6189607,
                42.8668091
              ],
              [
                -8.6190918,
                42.8671286
              ],
              [
                -8.6188102,
                42.868102
              ],
              [
                -8.6186548,
                42.8683271
              ],
              [
                -8.6185868,
                42.8686136
              ],
              [
                -8.618758,
                42.8688374
              ],
              [
                -8.6191277,
                42.8689633
              ],
              [
                -8.6208097,
                42.8689152
              ],
              [
                -8.6212936,
                42.8688459
              ],
              [
                -8.6216425,
                42.8689254
              ],
              [
                -8.6219132,
                42.8691581
              ],
              [
                -8.6221279,
                42.8695599
              ],
              [
                -8.6225554,
                42.8703397
              ],
              [
                -8.6228856,
                42.8706369
              ],
              [
                -8.623472,
                42.870967
              ],
              [
                -8.6235812,
                42.8711867
              ],
              [
                -8.6240425,
                42.8713397
              ],
              [
                -8.6246071,
                42.8713522
              ],
              [
                -8.6249931,
                42.8714376
              ],
              [
                -8.625435,
                42.8716351
              ],
              [
                -8.6254957,
                42.8712579
              ],
              [
                -8.6261027,
                42.8715604
              ],
              [
                -8.6273507,
                42.8717739
              ],
              [
                -8.6276979,
                42.8711832
              ],
              [
                -8.6290746,
                42.8716529
              ],
              [
                -8.6304846,
                42.8722539
              ],
              [
                -8.6304587,
                42.8723021
              ],
              [
                -8.6296984,
                42.8736437
              ],
              [
                -8.6291203,
                42.8741493
              ],
              [
                -8.629032,
                42.8746578
              ],
              [
                -8.6290768,
                42.8748807
              ],
              [
                -8.630011,
                42.8749246
              ],
              [
                -8.6302216,
                42.8752203
              ],
              [
                -8.6303992,
                42.8760937
              ],
              [
                -8.6289184,
                42.8763648
              ],
              [
                -8.6286699,
                42.8765931
              ],
              [
                -8.6285799,
                42.87829
              ],
              [
                -8.6277594,
                42.8780841
              ],
              [
                -8.6271908,
                42.8779465
              ],
              [
                -8.6263798,
                42.8787479
              ],
              [
                -8.6254206,
                42.8796958
              ],
              [
                -8.6242859,
                42.8807899
              ],
              [
                -8.6240638,
                42.8810159
              ],
              [
                -8.6238813,
                42.8812537
              ],
              [
                -8.6233885,
                42.8818003
              ],
              [
                -8.6231004,
                42.882098
              ],
              [
                -8.6235012,
                42.8827354
              ],
              [
                -8.6229798,
                42.8830582
              ],
              [
                -8.6233955,
                42.884127
              ],
              [
                -8.6234512,
                42.8852765
              ],
              [
                -8.6233475,
                42.8858848
              ],
              [
                -8.6227477,
                42.8870936
              ],
              [
                -8.622584,
                42.8881189
              ],
              [
                -8.6211266,
                42.8887849
              ],
              [
                -8.6210227,
                42.8889881
              ],
              [
                -8.6213439,
                42.8894223
              ],
              [
                -8.6217129,
                42.8897102
              ],
              [
                -8.6219251,
                42.8900239
              ],
              [
                -8.6219964,
                42.8913437
              ],
              [
                -8.6219447,
                42.8919854
              ],
              [
                -8.6226261,
                42.8926898
              ],
              [
                -8.6232829,
                42.8933688
              ],
              [
                -8.6236113,
                42.8936137
              ],
              [
                -8.6237904,
                42.89437
              ],
              [
                -8.6240571,
                42.894744
              ],
              [
                -8.6240776,
                42.894968
              ],
              [
                -8.6238998,
                42.8954359
              ],
              [
                -8.6238488,
                42.8958165
              ],
              [
                -8.623945,
                42.8961075
              ],
              [
                -8.6242208,
                42.8969415
              ],
              [
                -8.6244076,
                42.8983186
              ],
              [
                -8.6243306,
                42.8988175
              ],
              [
                -8.623804,
                42.9004279
              ],
              [
                -8.6236829,
                42.9005326
              ],
              [
                -8.6233954,
                42.9007811
              ],
              [
                -8.6232567,
                42.9009819
              ],
              [
                -8.6222812,
                42.9023934
              ],
              [
                -8.6214925,
                42.9034135
              ],
              [
                -8.6222853,
                42.9041846
              ],
              [
                -8.6222595,
                42.904708
              ],
              [
                -8.6230671,
                42.9056405
              ],
              [
                -8.6231549,
                42.9072746
              ],
              [
                -8.6207704,
                42.9077161
              ],
              [
                -8.6212558,
                42.9082053
              ],
              [
                -8.6218146,
                42.908961
              ],
              [
                -8.6209809,
                42.9110996
              ],
              [
                -8.6211607,
                42.9115949
              ],
              [
                -8.6210221,
                42.9123579
              ],
              [
                -8.6207639,
                42.9130188
              ],
              [
                -8.619721,
                42.9146095
              ],
              [
                -8.6194457,
                42.9152172
              ],
              [
                -8.6193752,
                42.9156528
              ],
              [
                -8.6187237,
                42.9167022
              ],
              [
                -8.6184101,
                42.9171587
              ],
              [
                -8.6180476,
                42.9172126
              ],
              [
                -8.6167646,
                42.9167086
              ],
              [
                -8.6162605,
                42.9165534
              ],
              [
                -8.6154524,
                42.9164221
              ],
              [
                -8.6147947,
                42.9161934
              ],
              [
                -8.6142517,
                42.9162831
              ],
              [
                -8.612878,
                42.91657
              ],
              [
                -8.612564,
                42.9162254
              ],
              [
                -8.611896,
                42.916198
              ],
              [
                -8.6116898,
                42.9160983
              ],
              [
                -8.6114079,
                42.915854
              ],
              [
                -8.611235,
                42.9156491
              ],
              [
                -8.6107943,
                42.9155232
              ],
              [
                -8.6105508,
                42.915955
              ],
              [
                -8.6104013,
                42.9161268
              ],
              [
                -8.6102871,
                42.9161901
              ],
              [
                -8.6096792,
                42.916508
              ],
              [
                -8.6094768,
                42.916707
              ],
              [
                -8.6091851,
                42.9171355
              ],
              [
                -8.6083379,
                42.916709
              ],
              [
                -8.6079166,
                42.9159825
              ],
              [
                -8.6061453,
                42.9158985
              ],
              [
                -8.6054265,
                42.9149976
              ],
              [
                -8.604824,
                42.9147031
              ],
              [
                -8.6040184,
                42.9144636
              ],
              [
                -8.5937824,
                42.9124723
              ],
              [
                -8.5888002,
                42.9138507
              ],
              [
                -8.5903325,
                42.9167014
              ],
              [
                -8.5914731,
                42.918743
              ],
              [
                -8.5918194,
                42.9218858
              ],
              [
                -8.5944378,
                42.924716
              ],
              [
                -8.5944407,
                42.9247191
              ],
              [
                -8.5937017,
                42.9256195
              ],
              [
                -8.5985334,
                42.9295866
              ],
              [
                -8.5976741,
                42.930511
              ],
              [
                -8.5969766,
                42.9315985
              ],
              [
                -8.5960269,
                42.9319331
              ],
              [
                -8.5973305,
                42.9333366
              ],
              [
                -8.595924,
                42.9348459
              ],
              [
                -8.5945669,
                42.9358217
              ],
              [
                -8.5975117,
                42.9380269
              ],
              [
                -8.5982778,
                42.9383674
              ],
              [
                -8.6005315,
                42.9399762
              ],
              [
                -8.6014636,
                42.9406596
              ],
              [
                -8.6025625,
                42.9415599
              ],
              [
                -8.6038736,
                42.9422337
              ],
              [
                -8.6058486,
                42.943469
              ],
              [
                -8.6069654,
                42.9414696
              ],
              [
                -8.6086292,
                42.9413068
              ],
              [
                -8.6108593,
                42.9394237
              ],
              [
                -8.6124641,
                42.9383456
              ],
              [
                -8.6147693,
                42.937692
              ],
              [
                -8.6154819,
                42.9365046
              ],
              [
                -8.6175426,
                42.9366643
              ],
              [
                -8.6198327,
                42.938667
              ],
              [
                -8.620559,
                42.9389733
              ],
              [
                -8.6216201,
                42.938786
              ],
              [
                -8.623794,
                42.939111
              ],
              [
                -8.6247009,
                42.9393813
              ],
              [
                -8.6250883,
                42.9400014
              ],
              [
                -8.6255942,
                42.9400395
              ],
              [
                -8.6255946,
                42.9408496
              ],
              [
                -8.6247328,
                42.9410722
              ],
              [
                -8.6241544,
                42.942118
              ],
              [
                -8.6249489,
                42.9434381
              ],
              [
                -8.6265511,
                42.9436742
              ],
              [
                -8.6265526,
                42.9436746
              ],
              [
                -8.6286635,
                42.9442632
              ],
              [
                -8.6314376,
                42.9453866
              ],
              [
                -8.6316583,
                42.9459248
              ],
              [
                -8.6304117,
                42.9473007
              ],
              [
                -8.6320116,
                42.9475098
              ],
              [
                -8.630785,
                42.9496408
              ],
              [
                -8.6377802,
                42.9522931
              ],
              [
                -8.6435734,
                42.9535911
              ],
              [
                -8.6471962,
                42.9560662
              ],
              [
                -8.6478489,
                42.9565122
              ],
              [
                -8.6490812,
                42.9564512
              ],
              [
                -8.6512311,
                42.9565068
              ],
              [
                -8.6515268,
                42.956123
              ],
              [
                -8.6525992,
                42.956457
              ],
              [
                -8.6532547,
                42.9555873
              ],
              [
                -8.6569517,
                42.9571415
              ],
              [
                -8.6604451,
                42.9576794
              ],
              [
                -8.6606929,
                42.9574934
              ],
              [
                -8.6612079,
                42.956928
              ],
              [
                -8.6616049,
                42.9562842
              ],
              [
                -8.6617466,
                42.9560529
              ],
              [
                -8.6620099,
                42.9555042
              ],
              [
                -8.6620851,
                42.9551224
              ],
              [
                -8.6619789,
                42.9547676
              ],
              [
                -8.660106,
                42.9522589
              ],
              [
                -8.6598333,
                42.9520924
              ],
              [
                -8.658998,
                42.9520708
              ],
              [
                -8.6573758,
                42.9524213
              ],
              [
                -8.6570528,
                42.9523743
              ],
              [
                -8.6567183,
                42.9522018
              ],
              [
                -8.6564782,
                42.9519887
              ],
              [
                -8.6563542,
                42.9517068
              ],
              [
                -8.656331,
                42.9513208
              ],
              [
                -8.6570827,
                42.9497744
              ],
              [
                -8.6579525,
                42.9474955
              ],
              [
                -8.6582782,
                42.9457059
              ],
              [
                -8.6578927,
                42.9420191
              ],
              [
                -8.6579517,
                42.9406603
              ],
              [
                -8.658388,
                42.9392999
              ],
              [
                -8.6585525,
                42.9387596
              ],
              [
                -8.6591851,
                42.9373069
              ],
              [
                -8.6591211,
                42.9367567
              ],
              [
                -8.6586611,
                42.9356045
              ],
              [
                -8.6582831,
                42.9349571
              ],
              [
                -8.6579802,
                42.934594
              ],
              [
                -8.6572332,
                42.9340639
              ],
              [
                -8.656496,
                42.9336413
              ],
              [
                -8.6562411,
                42.9332669
              ],
              [
                -8.6563592,
                42.9330811
              ],
              [
                -8.6564124,
                42.9329973
              ],
              [
                -8.6573509,
                42.9320476
              ],
              [
                -8.6578927,
                42.931215
              ],
              [
                -8.6582517,
                42.9308806
              ],
              [
                -8.6592867,
                42.9301451
              ],
              [
                -8.6604536,
                42.9292884
              ],
              [
                -8.6609059,
                42.9291016
              ],
              [
                -8.6615083,
                42.9290272
              ],
              [
                -8.6623881,
                42.9289212
              ],
              [
                -8.6635421,
                42.9289697
              ],
              [
                -8.6640441,
                42.9289908
              ],
              [
                -8.6642748,
                42.929031
              ],
              [
                -8.664567,
                42.9290819
              ],
              [
                -8.6649762,
                42.9292686
              ],
              [
                -8.6652545,
                42.9294978
              ],
              [
                -8.6655152,
                42.9306012
              ],
              [
                -8.6660395,
                42.9311063
              ],
              [
                -8.6664691,
                42.931382
              ],
              [
                -8.6669897,
                42.9315812
              ],
              [
                -8.6687692,
                42.932546
              ],
              [
                -8.6696819,
                42.9328788
              ],
              [
                -8.6703719,
                42.9333216
              ],
              [
                -8.67077,
                42.9336529
              ],
              [
                -8.670964,
                42.9340304
              ],
              [
                -8.6710069,
                42.9344963
              ],
              [
                -8.6707995,
                42.9357039
              ],
              [
                -8.6709026,
                42.9361579
              ],
              [
                -8.6713548,
                42.9368106
              ],
              [
                -8.6719232,
                42.9373071
              ],
              [
                -8.6724504,
                42.937409
              ],
              [
                -8.6728761,
                42.9373551
              ],
              [
                -8.6735256,
                42.937427
              ],
              [
                -8.6741449,
                42.9375721
              ],
              [
                -8.6750486,
                42.9381847
              ],
              [
                -8.6764256,
                42.9386559
              ],
              [
                -8.6780578,
                42.9394171
              ],
              [
                -8.678751,
                42.9395574
              ],
              [
                -8.6793267,
                42.9395558
              ],
              [
                -8.6798714,
                42.9394837
              ],
              [
                -8.6802956,
                42.9393005
              ],
              [
                -8.6806123,
                42.9390147
              ],
              [
                -8.6809491,
                42.9385478
              ],
              [
                -8.6811198,
                42.9380082
              ],
              [
                -8.6812664,
                42.9370736
              ],
              [
                -8.6812782,
                42.9352096
              ],
              [
                -8.6815313,
                42.9347649
              ],
              [
                -8.682041,
                42.9341814
              ],
              [
                -8.6823343,
                42.9340407
              ],
              [
                -8.6827132,
                42.9340309
              ],
              [
                -8.6829112,
                42.9340985
              ],
              [
                -8.6830714,
                42.9343684
              ],
              [
                -8.6833917,
                42.934504
              ],
              [
                -8.6839704,
                42.9346434
              ],
              [
                -8.6843885,
                42.9347936
              ],
              [
                -8.6848944,
                42.9348181
              ],
              [
                -8.6860376,
                42.9348735
              ],
              [
                -8.6869944,
                42.9347537
              ],
              [
                -8.6872642,
                42.9346233
              ],
              [
                -8.6874221,
                42.9342103
              ],
              [
                -8.6877135,
                42.9339167
              ],
              [
                -8.6879169,
                42.9336633
              ],
              [
                -8.6882469,
                42.9332395
              ],
              [
                -8.688955,
                42.9323695
              ],
              [
                -8.689264,
                42.9318679
              ],
              [
                -8.6896009,
                42.9300777
              ],
              [
                -8.6897644,
                42.9295924
              ],
              [
                -8.6900849,
                42.9292164
              ],
              [
                -8.6912614,
                42.9282935
              ],
              [
                -8.6920775,
                42.9271815
              ],
              [
                -8.6922952,
                42.9266215
              ],
              [
                -8.6921219,
                42.9255409
              ],
              [
                -8.691911,
                42.9248493
              ],
              [
                -8.6916554,
                42.9243433
              ],
              [
                -8.6913249,
                42.9238893
              ],
              [
                -8.6908286,
                42.9236069
              ],
              [
                -8.6904273,
                42.9234555
              ],
              [
                -8.6896825,
                42.9232549
              ],
              [
                -8.6885971,
                42.922656
              ],
              [
                -8.6881439,
                42.9223905
              ],
              [
                -8.687854,
                42.9220359
              ],
              [
                -8.6877876,
                42.9217151
              ],
              [
                -8.687614,
                42.9211778
              ],
              [
                -8.6879231,
                42.9205153
              ],
              [
                -8.6880343,
                42.9200782
              ],
              [
                -8.688201,
                42.9194259
              ],
              [
                -8.6887019,
                42.9184827
              ],
              [
                -8.6889487,
                42.9176036
              ],
              [
                -8.6892818,
                42.9166714
              ],
              [
                -8.6897421,
                42.9152891
              ],
              [
                -8.6894905,
                42.9134922
              ],
              [
                -8.6895002,
                42.9129336
              ],
              [
                -8.6890635,
                42.9107228
              ],
              [
                -8.6891156,
                42.9101566
              ],
              [
                -8.6892225,
                42.9089955
              ],
              [
                -8.6895522,
                42.9077908
              ],
              [
                -8.6902054,
                42.9073345
              ],
              [
                -8.6904645,
                42.9071998
              ],
              [
                -8.6908588,
                42.9069947
              ],
              [
                -8.6918293,
                42.9066302
              ],
              [
                -8.6924639,
                42.9061081
              ],
              [
                -8.6934123,
                42.9057174
              ],
              [
                -8.6934141,
                42.9057167
              ],
              [
                -8.6934649,
                42.905706
              ],
              [
                -8.6943081,
                42.905555
              ],
              [
                -8.6951986,
                42.9054823
              ],
              [
                -8.6957954,
                42.9052468
              ],
              [
                -8.6991495,
                42.903909
              ],
              [
                -8.6995895,
                42.903635
              ],
              [
                -8.7004275,
                42.903296
              ],
              [
                -8.7019736,
                42.9021385
              ],
              [
                -8.7023105,
                42.9019416
              ],
              [
                -8.703299,
                42.9016402
              ],
              [
                -8.7043443,
                42.9008947
              ],
              [
                -8.7045081,
                42.9006795
              ],
              [
                -8.7051399,
                42.9004949
              ],
              [
                -8.7057984,
                42.9002009
              ],
              [
                -8.7071289,
                42.8998913
              ],
              [
                -8.7077425,
                42.8999056
              ],
              [
                -8.7086831,
                42.9001466
              ],
              [
                -8.7092055,
                42.9004986
              ],
              [
                -8.7095143,
                42.9009242
              ],
              [
                -8.7101734,
                42.9015014
              ],
              [
                -8.7102339,
                42.9015544
              ],
              [
                -8.7103348,
                42.9016076
              ],
              [
                -8.7108088,
                42.9018577
              ],
              [
                -8.7117144,
                42.9023355
              ],
              [
                -8.7131077,
                42.9029679
              ],
              [
                -8.7137484,
                42.9035389
              ],
              [
                -8.7162525,
                42.9045298
              ],
              [
                -8.7169764,
                42.9047475
              ],
              [
                -8.7183058,
                42.905147
              ],
              [
                -8.7191313,
                42.9050697
              ],
              [
                -8.7194773,
                42.9049713
              ],
              [
                -8.719733,
                42.9048234
              ],
              [
                -8.7199989,
                42.904522
              ],
              [
                -8.7203078,
                42.9037594
              ],
              [
                -8.7204551,
                42.9031038
              ],
              [
                -8.7208562,
                42.9025436
              ],
              [
                -8.7209532,
                42.9022687
              ],
              [
                -8.7208964,
                42.9019205
              ],
              [
                -8.7207014,
                42.9015341
              ],
              [
                -8.7196767,
                42.9003882
              ],
              [
                -8.7187576,
                42.8995881
              ],
              [
                -8.7177671,
                42.8984134
              ],
              [
                -8.7160451,
                42.8971404
              ],
              [
                -8.7157715,
                42.89683
              ],
              [
                -8.7149132,
                42.8950996
              ],
              [
                -8.7147931,
                42.8947275
              ],
              [
                -8.7148208,
                42.8943661
              ],
              [
                -8.7149682,
                42.8941066
              ],
              [
                -8.7154817,
                42.8937028
              ],
              [
                -8.7159274,
                42.8934914
              ],
              [
                -8.7178321,
                42.893171
              ],
              [
                -8.7183375,
                42.8932086
              ],
              [
                -8.7201112,
                42.8935878
              ],
              [
                -8.7212008,
                42.8935872
              ],
              [
                -8.7215004,
                42.8934577
              ],
              [
                -8.721554,
                42.8934345
              ],
              [
                -8.7218038,
                42.8932239
              ],
              [
                -8.7220281,
                42.8928706
              ],
              [
                -8.7223087,
                42.8921994
              ],
              [
                -8.7224025,
                42.8912314
              ],
              [
                -8.7226174,
                42.8902935
              ],
              [
                -8.7226613,
                42.890102
              ],
              [
                -8.72321,
                42.8892465
              ],
              [
                -8.7240303,
                42.8887192
              ],
              [
                -8.7247127,
                42.888685
              ]
            ]
          ]
        ]
      }
    }
  ]
}
